IRIDIUM 116             
1 43072U 17083C   25263.90852030  .00000128  00000+0  38598-4 0  9997
2 43072  86.3909  74.5672 0002224  83.1417 277.0032 14.34217811405572
IRIDIUM 130             
1 43073U 17083D   25263.94656532 -.00000039  00000+0 -20901-4 0  9993
2 43073  86.3918  74.8008 0002341  85.2220 274.9243 14.34216933405523
IRIDIUM 151             
1 43074U 17083E   25263.92119355 -.00000022  00000+0 -15044-4 0  9993
2 43074  86.3912  74.6139 0002085  83.3794 276.7639 14.34217073405548
IRIDIUM 134             
1 43075U 17083F   25263.95924960  .00000009  00000+0 -38525-5 0  9997
2 43075  86.3913  74.6022 0002282  86.6996 273.4460 14.34217469405512
IRIDIUM 137             
1 43076U 17083G   25263.90216591 -.00000023  00000+0 -15423-4 0  9995
2 43076  86.3915  74.7136 0001895  71.6320 288.5082 14.34217196405576
IRIDIUM 141             
1 43077U 17083H   25263.89582304  .00000029  00000+0  31643-5 0  9999
2 43077  86.3909  74.5618 0002056  93.0975 267.0456 14.34217682405574
IRIDIUM 153             
1 43078U 17083J   25263.91777089 -.00000043  00000+0 -22551-4 0  9994
2 43078  86.3965  43.0145 0002036 105.0315 255.1106 14.34217186406685
IRIDIUM 131             
1 43079U 17083K   25263.95290699 -.00000057  00000+0 -27561-4 0  9997
2 43079  86.3916  74.7064 0001877  91.3318 268.8093 14.34216757405515
